SL-14 R/B               
1 16792U 86046B   25324.35080028  .00000521  00000+0  57472-4 0  9997
2 16792  82.4825 183.4574 0021946 226.9972 132.9405 14.85452790110176
SL-14 R/B               
1 16882U 86055B   25324.74551868  .00000638  00000+0  70965-4 0  9996
2 16882  82.5219 229.0364 0018409 337.3222  38.9610 14.85498440103192
AJISAI (EGS)            
1 16908U 86061A   25324.83504654 -.00000111  00000+0 -98851-4 0  9995
2 16908  50.0100  68.0710 0011217  10.8370 129.4480 12.44514110454447
COSMOS 1812             
1 17295U 87003A   25324.46453990  .00074843  00000+0  59774-3 0  9998
2 17295  82.4868 316.0410 0006022 121.5602 238.6250 15.70832921127154
SL-14 R/B               
1 17567U 87024B   25324.62588039  .00000524  00000+0  57115-4 0  9997
2 17567  82.5293 195.2264 0016729 261.6576  98.2744 14.85993591 71932
COSMOS 1833             
1 17589U 87027A   25324.34774650 -.00000110  00000+0 -33010-4 0  9990
2 17589  70.9134 195.8490 0021581   3.2410 356.8847 14.13018396994862
SL-16 R/B               
1 17590U 87027B   25324.49752195 -.00000082  00000+0 -16780-4 0  9991
2 17590  70.9999 146.5862 0007254 282.6074  77.4239 14.17146929999919
SL-14 R/B               
1 17912U 87038B   25324.63222146  .00000589  00000+0  65708-4 0  9999
2 17912  82.5035  39.5202 0019831 161.0150 199.1810 14.85231141 63044
COSMOS 1844             
1 17973U 87041A   25324.85219203  .00000092  00000+0  72793-4 0  9995
2 17973  70.8994 263.7334 0031180 190.7310 169.3151 14.14527154988193
SL-14 R/B               
1 18153U 87055B   25324.76272271  .00000599  00000+0  66336-4 0  9993
2 18153  82.4985  91.6982 0021083  17.6477 342.5466 14.85487255 53767
COSMOS 1867             
1 18187U 87060A   25324.87562713 -.00000004  00000+0  36239-4 0  9992
2 18187  65.0102 251.4290 0013679 268.8775  91.0742 14.31481198  4369
COSMOS 1892             
1 18421U 87088A   25324.69379773  .00513941  12665-3  67180-3 0  9995
2 18421  82.4663  68.6026 0005835 270.9538  89.1075 16.06938108 87782
