CCSDS_OMM_VERS = 2.0
CREATION_DATE  = 
ORIGINATOR     = 

OBJECT_NAME    = SL-14 R/B
OBJECT_ID      = 1986-046B
CENTER_NAME    = EARTH
REF_FRAME      = TEME
TIME_SYSTEM    = UTC
MEAN_ELEMENT_THEORY = SGP/SGP4

EPOCH          = 2025-11-20T08:25:09.144192
MEAN_MOTION    = 14.85452790
ECCENTRICITY   = .00219462
INCLINATION    = 82.4825
RA_OF_ASC_NODE = 183.4574
ARG_OF_PERICENTER = 226.9972
MEAN_ANOMALY   = 132.9405

EPHEMERIS_TYPE = 0
CLASSIFICATION_TYPE = U
NORAD_CAT_ID   = 16792
ELEMENT_SET_NO = 999
REV_AT_EPOCH   = 11017
BSTAR          = .57472057E-4
MEAN_MOTION_DOT = .521E-5
MEAN_MOTION_DDOT = 0

CCSDS_OMM_VERS = 2.0
CREATION_DATE  = 
ORIGINATOR     = 

OBJECT_NAME    = SL-14 R/B
OBJECT_ID      = 1986-055B
CENTER_NAME    = EARTH
REF_FRAME      = TEME
TIME_SYSTEM    = UTC
MEAN_ELEMENT_THEORY = SGP/SGP4

EPOCH          = 2025-11-20T17:53:32.813952
MEAN_MOTION    = 14.85498440
ECCENTRICITY   = .00184095
INCLINATION    = 82.5219
RA_OF_ASC_NODE = 229.0364
ARG_OF_PERICENTER = 337.3222
MEAN_ANOMALY   = 38.9610

EPHEMERIS_TYPE = 0
CLASSIFICATION_TYPE = U
NORAD_CAT_ID   = 16882
ELEMENT_SET_NO = 999
REV_AT_EPOCH   = 10319
BSTAR          = .70964788E-4
MEAN_MOTION_DOT = .638E-5
MEAN_MOTION_DDOT = 0

CCSDS_OMM_VERS = 2.0
CREATION_DATE  = 
ORIGINATOR     = 

OBJECT_NAME    = AJISAI (EGS)
OBJECT_ID      = 1986-061A
CENTER_NAME    = EARTH
REF_FRAME      = TEME
TIME_SYSTEM    = UTC
MEAN_ELEMENT_THEORY = SGP/SGP4

EPOCH          = 2025-11-20T20:02:28.021056
MEAN_MOTION    = 12.44514110
ECCENTRICITY   = .00112173
INCLINATION    = 50.0100
RA_OF_ASC_NODE = 68.0710
ARG_OF_PERICENTER = 10.8370
MEAN_ANOMALY   = 129.4480

EPHEMERIS_TYPE = 0
CLASSIFICATION_TYPE = U
NORAD_CAT_ID   = 16908
ELEMENT_SET_NO = 999
REV_AT_EPOCH   = 45444
BSTAR          = -.98850954E-4
MEAN_MOTION_DOT = -.111E-5
MEAN_MOTION_DDOT = 0

CCSDS_OMM_VERS = 2.0
CREATION_DATE  = 
ORIGINATOR     = 

OBJECT_NAME    = COSMOS 1812
OBJECT_ID      = 1987-003A
CENTER_NAME    = EARTH
REF_FRAME      = TEME
TIME_SYSTEM    = UTC
MEAN_ELEMENT_THEORY = SGP/SGP4

EPOCH          = 2025-11-20T11:08:56.247360
MEAN_MOTION    = 15.70832921
ECCENTRICITY   = .00060227
INCLINATION    = 82.4868
RA_OF_ASC_NODE = 316.0410
ARG_OF_PERICENTER = 121.5602
MEAN_ANOMALY   = 238.6250

EPHEMERIS_TYPE = 0
CLASSIFICATION_TYPE = U
NORAD_CAT_ID   = 17295
ELEMENT_SET_NO = 999
REV_AT_EPOCH   = 12715
BSTAR          = .59774172E-3
MEAN_MOTION_DOT = .74843E-3
MEAN_MOTION_DDOT = 0

CCSDS_OMM_VERS = 2.0
CREATION_DATE  = 
ORIGINATOR     = 

OBJECT_NAME    = SL-14 R/B
OBJECT_ID      = 1987-024B
CENTER_NAME    = EARTH
REF_FRAME      = TEME
TIME_SYSTEM    = UTC
MEAN_ELEMENT_THEORY = SGP/SGP4

EPOCH          = 2025-11-20T15:01:16.065696
MEAN_MOTION    = 14.85993591
ECCENTRICITY   = .00167297
INCLINATION    = 82.5293
RA_OF_ASC_NODE = 195.2264
ARG_OF_PERICENTER = 261.6576
MEAN_ANOMALY   = 98.2744

EPHEMERIS_TYPE = 0
CLASSIFICATION_TYPE = U
NORAD_CAT_ID   = 17567
ELEMENT_SET_NO = 999
REV_AT_EPOCH   = 7193
BSTAR          = .57115005E-4
MEAN_MOTION_DOT = .524E-5
MEAN_MOTION_DDOT = 0

CCSDS_OMM_VERS = 2.0
CREATION_DATE  = 
ORIGINATOR     = 

OBJECT_NAME    = COSMOS 1833
OBJECT_ID      = 1987-027A
CENTER_NAME    = EARTH
REF_FRAME      = TEME
TIME_SYSTEM    = UTC
MEAN_ELEMENT_THEORY = SGP/SGP4

EPOCH          = 2025-11-20T08:20:45.297600
MEAN_MOTION    = 14.13018396
ECCENTRICITY   = .00215819
INCLINATION    = 70.9134
RA_OF_ASC_NODE = 195.8490
ARG_OF_PERICENTER = 3.2410
MEAN_ANOMALY   = 356.8847

EPHEMERIS_TYPE = 0
CLASSIFICATION_TYPE = U
NORAD_CAT_ID   = 17589
ELEMENT_SET_NO = 999
REV_AT_EPOCH   = 99486
BSTAR          = -.33009749E-4
MEAN_MOTION_DOT = -.11E-5
MEAN_MOTION_DDOT = 0

CCSDS_OMM_VERS = 2.0
CREATION_DATE  = 
ORIGINATOR     = 

OBJECT_NAME    = SL-16 R/B
OBJECT_ID      = 1987-027B
CENTER_NAME    = EARTH
REF_FRAME      = TEME
TIME_SYSTEM    = UTC
MEAN_ELEMENT_THEORY = SGP/SGP4

EPOCH          = 2025-11-20T11:56:25.896480
MEAN_MOTION    = 14.17146929
ECCENTRICITY   = .00072543
INCLINATION    = 70.9999
RA_OF_ASC_NODE = 146.5862
ARG_OF_PERICENTER = 282.6074
MEAN_ANOMALY   = 77.4239

EPHEMERIS_TYPE = 0
CLASSIFICATION_TYPE = U
NORAD_CAT_ID   = 17590
ELEMENT_SET_NO = 999
REV_AT_EPOCH   = 99991
BSTAR          = -.16780244E-4
MEAN_MOTION_DOT = -.82E-6
MEAN_MOTION_DDOT = 0

CCSDS_OMM_VERS = 2.0
CREATION_DATE  = 
ORIGINATOR     = 

OBJECT_NAME    = SL-14 R/B
OBJECT_ID      = 1987-038B
CENTER_NAME    = EARTH
REF_FRAME      = TEME
TIME_SYSTEM    = UTC
MEAN_ELEMENT_THEORY = SGP/SGP4

EPOCH          = 2025-11-20T15:10:23.934144
MEAN_MOTION    = 14.85231141
ECCENTRICITY   = .00198317
INCLINATION    = 82.5035
RA_OF_ASC_NODE = 39.5202
ARG_OF_PERICENTER = 161.0150
MEAN_ANOMALY   = 199.1810

EPHEMERIS_TYPE = 0
CLASSIFICATION_TYPE = U
NORAD_CAT_ID   = 17912
ELEMENT_SET_NO = 999
REV_AT_EPOCH   = 6304
BSTAR          = .65707613E-4
MEAN_MOTION_DOT = .589E-5
MEAN_MOTION_DDOT = 0

CCSDS_OMM_VERS = 2.0
CREATION_DATE  = 
ORIGINATOR     = 

OBJECT_NAME    = COSMOS 1844
OBJECT_ID      = 1987-041A
CENTER_NAME    = EARTH
REF_FRAME      = TEME
TIME_SYSTEM    = UTC
MEAN_ELEMENT_THEORY = SGP/SGP4

EPOCH          = 2025-11-20T20:27:09.391392
MEAN_MOTION    = 14.14527154
ECCENTRICITY   = .003118
INCLINATION    = 70.8994
RA_OF_ASC_NODE = 263.7334
ARG_OF_PERICENTER = 190.7310
MEAN_ANOMALY   = 169.3151

EPHEMERIS_TYPE = 0
CLASSIFICATION_TYPE = U
NORAD_CAT_ID   = 17973
ELEMENT_SET_NO = 999
REV_AT_EPOCH   = 98819
BSTAR          = .72792819E-4
MEAN_MOTION_DOT = .92E-6
MEAN_MOTION_DDOT = 0

CCSDS_OMM_VERS = 2.0
CREATION_DATE  = 
ORIGINATOR     = 

OBJECT_NAME    = SL-14 R/B
OBJECT_ID      = 1987-055B
CENTER_NAME    = EARTH
REF_FRAME      = TEME
TIME_SYSTEM    = UTC
MEAN_ELEMENT_THEORY = SGP/SGP4

EPOCH          = 2025-11-20T18:18:19.242144
MEAN_MOTION    = 14.85487255
ECCENTRICITY   = .00210838
INCLINATION    = 82.4985
RA_OF_ASC_NODE = 91.6982
ARG_OF_PERICENTER = 17.6477
MEAN_ANOMALY   = 342.5466

EPHEMERIS_TYPE = 0
CLASSIFICATION_TYPE = U
NORAD_CAT_ID   = 18153
ELEMENT_SET_NO = 999
REV_AT_EPOCH   = 5376
BSTAR          = .66335673E-4
MEAN_MOTION_DOT = .599E-5
MEAN_MOTION_DDOT = 0

CCSDS_OMM_VERS = 2.0
CREATION_DATE  = 
ORIGINATOR     = 

OBJECT_NAME    = COSMOS 1867
OBJECT_ID      = 1987-060A
CENTER_NAME    = EARTH
REF_FRAME      = TEME
TIME_SYSTEM    = UTC
MEAN_ELEMENT_THEORY = SGP/SGP4

EPOCH          = 2025-11-20T21:00:54.184032
MEAN_MOTION    = 14.31481198
ECCENTRICITY   = .00136791
INCLINATION    = 65.0102
RA_OF_ASC_NODE = 251.4290
ARG_OF_PERICENTER = 268.8775
MEAN_ANOMALY   = 91.0742

EPHEMERIS_TYPE = 0
CLASSIFICATION_TYPE = U
NORAD_CAT_ID   = 18187
ELEMENT_SET_NO = 999
REV_AT_EPOCH   = 436
BSTAR          = .36238745E-4
MEAN_MOTION_DOT = -.4E-7
MEAN_MOTION_DDOT = 0

CCSDS_OMM_VERS = 2.0
CREATION_DATE  = 
ORIGINATOR     = 

OBJECT_NAME    = COSMOS 1892
OBJECT_ID      = 1987-088A
CENTER_NAME    = EARTH
REF_FRAME      = TEME
TIME_SYSTEM    = UTC
MEAN_ELEMENT_THEORY = SGP/SGP4

EPOCH          = 2025-11-20T16:39:04.123872
MEAN_MOTION    = 16.06938108
ECCENTRICITY   = .00058357
INCLINATION    = 82.4663
RA_OF_ASC_NODE = 68.6026
ARG_OF_PERICENTER = 270.9538
MEAN_ANOMALY   = 89.1075

EPHEMERIS_TYPE = 0
CLASSIFICATION_TYPE = U
NORAD_CAT_ID   = 18421
ELEMENT_SET_NO = 999
REV_AT_EPOCH   = 8778
BSTAR          = .67179667E-3
MEAN_MOTION_DOT = .513941E-2
MEAN_MOTION_DDOT = .12665245E-3

